OBJECT_NAME,OBJECT_ID,EPOCH,MEAN_MOTION,ECCENTRICITY,INCLINATION,RA_OF_ASC_NODE,ARG_OF_PERICENTER,MEAN_ANOMALY,EPHEMERIS_TYPE,CLASSIFICATION_TYPE,NORAD_CAT_ID,ELEMENT_SET_NO,REV_AT_EPOCH,BSTAR,MEAN_MOTION_DOT,MEAN_MOTION_DDOT
CUBEBUG-2 (LO-74),2013-066AA,2026-06-10T02:18:58.118400,14.93705686,.00590877,97.8902,110.0449,51.9853,308.6680,0,U,39440,999,67593,.32201289E-3,.3464E-4,0
FUNCUBE-1 (AO-73),2013-066AE,2026-06-10T13:26:25.897344,15.09408570,.00350076,97.8263,132.8674,223.9951,135.8490,0,U,39444,999,67866,.317536E-3,.508E-4,0
UWE-3,2013-066AG,2026-06-10T14:21:38.492352,14.96970973,.00485957,97.8684,117.6280,343.1994,16.7615,0,U,39446,999,67659,.32850626E-3,.3805E-4,0
UNISAT-6,2014-033C,2026-06-10T08:13:14.687904,14.88209392,.00464266,97.7868,314.1760,91.2128,269.4408,0,U,40012,999,64514,.26042012E-3,.2394E-4,0
DUCHIFAT-1,2014-033M,2026-06-10T10:21:09.914400,15.63249626,.00041976,98.0468,219.6499,126.9864,233.1777,0,U,40021,999,65469,.10615932E-2,.98092E-3,0
QB50P1,2014-033R,2026-06-10T13:25:18.984000,15.18160069,.00072406,98.0970,172.2408,241.5773,118.4730,0,U,40025,999,65202,.35728158E-3,.7227E-4,0
LILACSAT-2,2015-049K,2026-06-10T13:32:09.004704,15.51225787,.00052855,97.4660,198.1544,277.2208,82.8443,0,U,40908,999,59472,.27469889E-3,.15995E-3,0
FOX-1A (AO-85),2015-058D,2026-06-10T13:52:15.394080,14.90937599,.01300596,64.7757,299.5219,59.1792,302.2043,0,U,40967,999,11258,.21318416E-3,.2301E-4,0
CAS-2T & KS-1Q,2016-066G,2026-06-10T12:32:00.777408,14.44672243,.03425709,98.3822,237.3346,149.6411,212.5119,0,U,41847,999,50383,.22576155E-3,.1558E-4,0
RADFXSAT (FOX-1B),2017-073E,2026-06-10T14:14:01.765536,15.12608951,.01505748,97.4719,28.9430,352.0804,7.8050,0,U,43017,999,46439,.34602019E-3,.7911E-4,0
DIWATA-2B,2018-084H,2026-06-10T13:37:30.925056,15.00420507,.00121501,98.1177,357.4891,191.7961,168.2978,0,U,43678,999,41522,.18239583E-3,.223E-4,0
ES'HAIL 2,2018-090A,2026-06-10T13:24:48.783744,1.00273986,.00018948,0.0124,297.5952,183.1386,5.2106,0,U,43700,999,2761,0,.162E-5,0
FOX-1CLIFF (AO-95),2018-099N,2026-06-09T17:40:40.880928,15.26553683,.0008751,97.4390,221.0109,24.8412,335.3246,0,U,43770,999,41208,.4088E-3,.10631E-3,0
ITASAT,2018-099AE,2026-06-10T15:09:55.911168,15.18974140,.00128124,97.4034,213.2746,23.0700,337.1107,0,U,43786,999,41191,.3055506E-3,.6335E-4,0
JY1SAT (JO-97),2018-099AX,2026-06-10T10:33:54.696960,15.33439242,.00041379,97.4136,224.2518,295.7294,64.3521,0,U,43803,999,41259,.49533788E-3,.15949E-3,0
UWE-4,2018-111E,2026-06-10T14:42:32.621184,15.45713387,.00067446,97.5851,89.7026,9.3200,350.8173,0,U,43880,999,40976,.61234567E-3,.29581E-3,0
TIANYAN 01,2019-093C,2026-06-10T15:36:02.517696,14.86510030,.00149796,97.7530,234.0414,106.0139,254.2728,0,U,44881,999,35044,.82771355E-4,.68E-5,0
RS-44 & BREEZE-KM R/B,2019-096E,2026-06-10T14:15:48.098016,12.79748699,.0217875,82.5217,344.0868,159.5378,201.4622,0,U,44909,999,30150,.80700192E-4,.32E-6,0
SALSAT,2020-068K,2026-06-10T12:56:05.145216,15.29703223,.00086211,97.8853,164.1992,335.4923,24.5905,0,U,46495,999,31434,.24329255E-3,.6924E-4,0
XW-3 (CAS-9),2021-131B,2026-06-10T14:22:00.179616,14.41351510,.0005274,98.4971,254.0240,112.0154,248.1596,0,U,50466,999,23416,.12436941E-3,.359E-5,0
GREENCUBE (IO-117),2022-080E,2026-06-01T11:09:37.753056,6.42583280,.00088692,70.1435,303.7143,293.3663,66.6064,0,U,53109,999,9105,0,-.3E-7,0
UMKA 1 (RS40S),2023-091G,2026-06-10T13:55:07.330944,15.20740716,.0013946,97.5057,220.3027,138.3432,221.8868,0,U,57172,999,16300,.26928508E-3,.5871E-4,0
CUBESX-HSE 3 (RS42S),2023-091N,2026-06-10T13:45:22.875552,15.31046056,.00121538,97.5098,227.0773,115.0062,245.2442,0,U,57178,999,16341,.39216692E-3,.11715E-3,0
MONITOR-3 (RS58S),2023-091Q,2026-06-10T13:59:44.210112,15.27706933,.00130698,97.5090,224.9812,121.1888,239.0634,0,U,57180,999,16328,.36409173E-3,.9809E-4,0
MONITOR-4 (RS57S),2023-091S,2026-06-10T15:04:25.905504,15.27799469,.00130681,97.5084,224.9972,121.3755,238.8765,0,U,57182,999,16329,.3193075E-3,.8616E-4,0
MONITOR-2 (RS39S),2023-091U,2026-06-10T14:13:50.101536,15.18847932,.00124957,97.5079,219.9185,131.3066,228.9246,0,U,57184,999,16295,.21225025E-3,.4361E-4,0
SVYATOBOR 1 (RS60S),2023-091X,2026-06-10T15:15:13.532256,15.26501600,.00109087,97.5095,225.4165,114.0648,246.1733,0,U,57187,999,16331,.29577486E-3,.766E-4,0
VIZARD-METEO (RS38S),2023-091Z,2026-06-10T13:37:14.249856,15.35812743,.00085982,97.5097,230.9209,97.3628,262.8593,0,U,57189,999,16367,.43108115E-3,.14966E-3,0
POLYTECH-UNIVERSE 3 (RS46S),2023-091AB,2026-06-10T14:54:15.610464,15.19049755,.00164581,97.5054,219.4509,147.8444,212.3798,0,U,57191,999,16295,.217303E-3,.4499E-4,0
UTMN 2 (RS27S),2023-091AP,2026-06-10T14:15:55.477440,15.31888060,.00094675,97.5093,228.7247,103.3750,256.8548,0,U,57203,999,16353,.39089895E-3,.11977E-3,0
